{
  "type": "FeatureCollection",
  "features": [
    {
      "type": "Feature",
      "properties": {
        "norad_id": 35144,
        "name": "FENGYUN 1C DEB",
        "group": "fengyun-1c-debris",
        "lat": 11.826775677467058,
        "lon": -76.67980563301685,
        "alt_km": 715.2501203399297,
        "timestamp": "2025-12-12T03:50:52.704444+00:00",
        "meta_object_name": "FENGYUN 1C DEB",
        "meta_object_id": "1999-025DLY",
        "meta_epoch": "2025-12-11T13:54:55.730016",
        "meta_mean_motion": 14.59153521,
        "meta_eccentricity": 0.0026594,
        "meta_inclination": 98.6992,
        "meta_ra_of_asc_node": 100.875,
        "meta_arg_of_pericenter": 5.3698,
        "meta_mean_anomaly": 354.778,
        "meta_ephemeris_type": 0,
        "meta_classification_type": "U",
        "meta_norad_cat_id": 35144,
        "meta_element_set_no": 999,
        "meta_rev_at_epoch": 65196,
        "meta_bstar": 0.0041915394,
        "meta_mean_motion_dot": 0.00019845,
        "meta_mean_motion_ddot": 0,
        "tle_line1": "1 35144U 99025DLY 25345.57981169  .00019845  00000+0  41915-2 0  9995",
        "tle_line2": "2 35144  98.6992 100.8750 0026594   5.3698 354.7780 14.59153521651967"
      },
      "geometry": {
        "type": "Point",
        "coordinates": [
          -76.67980563301685,
          11.826775677467058
        ]
      }
    },
    {
      "type": "Feature",
      "properties": {
        "norad_id": 35147,
        "name": "FENGYUN 1C DEB",
        "group": "fengyun-1c-debris",
        "lat": -33.08245968465089,
        "lon": 65.60825517886673,
        "alt_km": 665.0573909129871,
        "timestamp": "2025-12-12T03:50:52.704455+00:00",
        "meta_object_name": "FENGYUN 1C DEB",
        "meta_object_id": "1999-025DMB",
        "meta_epoch": "2025-12-08T03:53:17.840256",
        "meta_mean_motion": 14.74032065,
        "meta_eccentricity": 0.00276083,
        "meta_inclination": 99.4865,
        "meta_ra_of_asc_node": 54.6818,
        "meta_arg_of_pericenter": 212.762,
        "meta_mean_anomaly": 147.1872,
        "meta_ephemeris_type": 0,
        "meta_classification_type": "U",
        "meta_norad_cat_id": 35147,
        "meta_element_set_no": 999,
        "meta_rev_at_epoch": 74237,
        "meta_bstar": 0.0037161375,
        "meta_mean_motion_dot": 0.00024612,
        "meta_mean_motion_ddot": 0,
        "tle_line1": "1 35147U 99025DMB 25342.16201204  .00024612  00000+0  37161-2 0  9991",
        "tle_line2": "2 35147  99.4865  54.6818 0027608 212.7620 147.1872 14.74032065742373"
      },
      "geometry": {
        "type": "Point",
        "coordinates": [
          65.60825517886673,
          -33.08245968465089
        ]
      }
    },
    {
      "type": "Feature",
      "properties": {
        "norad_id": 35152,
        "name": "FENGYUN 1C DEB",
        "group": "fengyun-1c-debris",
        "lat": -75.77863637446872,
        "lon": -54.27370548644689,
        "alt_km": 1047.3487502937423,
        "timestamp": "2025-12-12T03:50:52.704465+00:00",
        "meta_object_name": "FENGYUN 1C DEB",
        "meta_object_id": "1999-025DMG",
        "meta_epoch": "2025-12-09T06:32:50.767584",
        "meta_mean_motion": 13.76426124,
        "meta_eccentricity": 0.019481,
        "meta_inclination": 99.8191,
        "meta_ra_of_asc_node": 165.8523,
        "meta_arg_of_pericenter": 24.4192,
        "meta_mean_anomaly": 336.6036,
        "meta_ephemeris_type": 0,
        "meta_classification_type": "U",
        "meta_norad_cat_id": 35152,
        "meta_element_set_no": 999,
        "meta_rev_at_epoch": 62145,
        "meta_bstar": 0.0008876,
        "meta_mean_motion_dot": 9.5e-06,
        "meta_mean_motion_ddot": 0,
        "tle_line1": "1 35152U 99025DMG 25343.27280981  .00000950  00000+0  88760-3 0  9990",
        "tle_line2": "2 35152  99.8191 165.8523 0194810  24.4192 336.6036 13.76426124621451"
      },
      "geometry": {
        "type": "Point",
        "coordinates": [
          -54.27370548644689,
          -75.77863637446872
        ]
      }
    },
    {
      "type": "Feature",
      "properties": {
        "norad_id": 35153,
        "name": "FENGYUN 1C DEB",
        "group": "fengyun-1c-debris",
        "lat": -78.3878577115429,
        "lon": -72.38679337911957,
        "alt_km": 773.9095435337567,
        "timestamp": "2025-12-12T03:50:52.704476+00:00",
        "meta_object_name": "FENGYUN 1C DEB",
        "meta_object_id": "1999-025DMH",
        "meta_epoch": "2025-12-10T22:53:53.083104",
        "meta_mean_motion": 14.7371709,
        "meta_eccentricity": 0.0171271,
        "meta_inclination": 98.902,
        "meta_ra_of_asc_node": 236.5834,
        "meta_arg_of_pericenter": 88.7296,
        "meta_mean_anomaly": 273.3523,
        "meta_ephemeris_type": 0,
        "meta_classification_type": "U",
        "meta_norad_cat_id": 35153,
        "meta_element_set_no": 999,
        "meta_rev_at_epoch": 97191,
        "meta_bstar": 0.00051843,
        "meta_mean_motion_dot": 4.214e-05,
        "meta_mean_motion_ddot": 0,
        "tle_line1": "1 35153U 99025DMH 25344.95408661  .00004214  00000+0  51843-3 0  9993",
        "tle_line2": "2 35153  98.9020 236.5834 0171271  88.7296 273.3523 14.73717090971918"
      },
      "geometry": {
        "type": "Point",
        "coordinates": [
          -72.38679337911957,
          -78.3878577115429
        ]
      }
    },
    {
      "type": "Feature",
      "properties": {
        "norad_id": 35154,
        "name": "FENGYUN 1C DEB",
        "group": "fengyun-1c-debris",
        "lat": -24.62564771207044,
        "lon": 111.96889130109207,
        "alt_km": 786.1314716974466,
        "timestamp": "2025-12-12T03:50:52.704485+00:00",
        "meta_object_name": "FENGYUN 1C DEB",
        "meta_object_id": "1999-025DMJ",
        "meta_epoch": "2025-12-11T14:25:27.188832",
        "meta_mean_motion": 14.18895758,
        "meta_eccentricity": 0.01793749,
        "meta_inclination": 99.4214,
        "meta_ra_of_asc_node": 107.0097,
        "meta_arg_of_pericenter": 45.6577,
        "meta_mean_anomaly": 315.9139,
        "meta_ephemeris_type": 0,
        "meta_classification_type": "U",
        "meta_norad_cat_id": 35154,
        "meta_element_set_no": 999,
        "meta_rev_at_epoch": 64561,
        "meta_bstar": 0.00044304667,
        "meta_mean_motion_dot": 1.033e-05,
        "meta_mean_motion_ddot": 0,
        "tle_line1": "1 35154U 99025DMJ 25345.60100913  .00001033  00000+0  44305-3 0  9997",
        "tle_line2": "2 35154  99.4214 107.0097 0179374  45.6577 315.9139 14.18895758645617"
      },
      "geometry": {
        "type": "Point",
        "coordinates": [
          111.96889130109207,
          -24.62564771207044
        ]
      }
    },
    {
      "type": "Feature",
      "properties": {
        "norad_id": 35155,
        "name": "FENGYUN 1C DEB",
        "group": "fengyun-1c-debris",
        "lat": 79.17967715896549,
        "lon": -130.65906828041696,
        "alt_km": 803.0543584741417,
        "timestamp": "2025-12-12T03:50:52.704495+00:00",
        "meta_object_name": "FENGYUN 1C DEB",
        "meta_object_id": "1999-025DMK",
        "meta_epoch": "2025-12-01T18:40:23.892384",
        "meta_mean_motion": 14.19237116,
        "meta_eccentricity": 0.00262936,
        "meta_inclination": 98.5005,
        "meta_ra_of_asc_node": 347.8913,
        "meta_arg_of_pericenter": 103.4458,
        "meta_mean_anomaly": 256.9651,
        "meta_ephemeris_type": 0,
        "meta_classification_type": "U",
        "meta_norad_cat_id": 35155,
        "meta_element_set_no": 999,
        "meta_rev_at_epoch": 72558,
        "meta_bstar": 0.00064940785,
        "meta_mean_motion_dot": 1.325e-05,
        "meta_mean_motion_ddot": 0,
        "tle_line1": "1 35155U 99025DMK 25335.77805431  .00001325  00000+0  64941-3 0  9994",
        "tle_line2": "2 35155  98.5005 347.8913 0026293 103.4458 256.9651 14.19237116725586"
      },
      "geometry": {
        "type": "Point",
        "coordinates": [
          -130.65906828041696,
          79.17967715896549
        ]
      }
    },
    {
      "type": "Feature",
      "properties": {
        "norad_id": 35156,
        "name": "FENGYUN 1C DEB",
        "group": "fengyun-1c-debris",
        "lat": -15.3876673280953,
        "lon": 150.16241232693812,
        "alt_km": 843.7368601938633,
        "timestamp": "2025-12-12T03:50:52.704516+00:00",
        "meta_object_name": "FENGYUN 1C DEB",
        "meta_object_id": "1999-025DML",
        "meta_epoch": "2025-12-03T09:32:20.618304",
        "meta_mean_motion": 14.10610073,
        "meta_eccentricity": 0.0036093,
        "meta_inclination": 98.7501,
        "meta_ra_of_asc_node": 324.0617,
        "meta_arg_of_pericenter": 174.1914,
        "meta_mean_anomaly": 185.9683,
        "meta_ephemeris_type": 0,
        "meta_classification_type": "U",
        "meta_norad_cat_id": 35156,
        "meta_element_set_no": 999,
        "meta_rev_at_epoch": 63912,
        "meta_bstar": 0.00049263017,
        "meta_mean_motion_dot": 8.41e-06,
        "meta_mean_motion_ddot": 0,
        "tle_line1": "1 35156U 99025DML 25337.39746086  .00000841  00000+0  49263-3 0  9997",
        "tle_line2": "2 35156  98.7501 324.0617 0036093 174.1914 185.9683 14.10610073639127"
      },
      "geometry": {
        "type": "Point",
        "coordinates": [
          150.16241232693812,
          -15.3876673280953
        ]
      }
    }
  ]
}